[{"OBJECT_NAME":"ICEYE-X31","OBJECT_ID":"2023-174AJ","EPOCH":"2026-03-09T23:06:20.433600","MEAN_MOTION":15.30950809,"ECCENTRICITY":0.00015021,"INCLINATION":97.3851,"RA_OF_ASC_NODE":144.9524,"ARG_OF_PERICENTER":332.6589,"MEAN_ANOMALY":27.4572,"EPHEMERIS_TYPE":0,"CLASSIFICATION_TYPE":"U","NORAD_CAT_ID":58288,"ELEMENT_SET_NO":999,"REV_AT_EPOCH":12955,"BSTAR":0.00066288467,"MEAN_MOTION_DOT":0.00019777,"MEAN_MOTION_DDOT":0},{"OBJECT_NAME":"STARLINK-32014","OBJECT_ID":"2024-120R","EPOCH":"2026-03-09T22:07:06.044736","MEAN_MOTION":15.30179769,"ECCENTRICITY":0.00012338,"INCLINATION":53.1589,"RA_OF_ASC_NODE":318.707,"ARG_OF_PERICENTER":104.927,"MEAN_ANOMALY":255.1867,"EPHEMERIS_TYPE":0,"CLASSIFICATION_TYPE":"U","NORAD_CAT_ID":60150,"ELEMENT_SET_NO":999,"REV_AT_EPOCH":9641,"BSTAR":-3.4724357e-5,"MEAN_MOTION_DOT":-1.387e-5,"MEAN_MOTION_DDOT":0}]
